sat38380
1 38380U 65027CH  20046.83387787  .00000080  00000-0  24885-3 0  9993
2 38380  90.2715 260.3421 0016936 322.1599  37.8330 12.98067411831265
